[{"OBJECT_NAME":"OBJECT K","OBJECT_ID":"2024-205K","EPOCH":"2026-03-09T22:22:01.331040","MEAN_MOTION":15.27932792,"ECCENTRICITY":0.00106729,"INCLINATION":97.417,"RA_OF_ASC_NODE":146.2172,"ARG_OF_PERICENTER":37.4736,"MEAN_ANOMALY":322.7246,"EPHEMERIS_TYPE":0,"CLASSIFICATION_TYPE":"U","NORAD_CAT_ID":61903,"ELEMENT_SET_NO":999,"REV_AT_EPOCH":7347,"BSTAR":0.00067315144,"MEAN_MOTION_DOT":0.00018331,"MEAN_MOTION_DDOT":0},{"OBJECT_NAME":"STARLINK-35477","OBJECT_ID":"2025-253V","EPOCH":"2026-03-09T09:57:46.940832","MEAN_MOTION":15.27582395,"ECCENTRICITY":0.00020924,"INCLINATION":42.9991,"RA_OF_ASC_NODE":213.9589,"ARG_OF_PERICENTER":275.6665,"MEAN_ANOMALY":84.3948,"EPHEMERIS_TYPE":0,"CLASSIFICATION_TYPE":"U","NORAD_CAT_ID":66338,"ELEMENT_SET_NO":999,"REV_AT_EPOCH":2020,"BSTAR":0.00092907269,"MEAN_MOTION_DOT":0.00025394,"MEAN_MOTION_DDOT":0}]
